[{"OBJECT_NAME":"STARLINK-35018","OBJECT_ID":"2025-184R","EPOCH":"2026-03-09T16:45:02.727072","MEAN_MOTION":15.05656306,"ECCENTRICITY":0.00014479,"INCLINATION":97.6039,"RA_OF_ASC_NODE":122.6932,"ARG_OF_PERICENTER":84.7291,"MEAN_ANOMALY":275.4101,"EPHEMERIS_TYPE":0,"CLASSIFICATION_TYPE":"U","NORAD_CAT_ID":65288,"ELEMENT_SET_NO":999,"REV_AT_EPOCH":3130,"BSTAR":0.00048497413,"MEAN_MOTION_DOT":6.945e-5,"MEAN_MOTION_DDOT":0},{"OBJECT_NAME":"NOAA 16 DEB","OBJECT_ID":"2000-055BZ","EPOCH":"2026-03-09T09:57:46.840608","MEAN_MOTION":15.04968987,"ECCENTRICITY":0.00133628,"INCLINATION":98.8453,"RA_OF_ASC_NODE":286.076,"ARG_OF_PERICENTER":194.204,"MEAN_ANOMALY":165.8809,"EPHEMERIS_TYPE":0,"CLASSIFICATION_TYPE":"U","NORAD_CAT_ID":41142,"ELEMENT_SET_NO":999,"REV_AT_EPOCH":53866,"BSTAR":0.0051237154,"MEAN_MOTION_DOT":0.00073426,"MEAN_MOTION_DDOT":0}]
